{
  "type": "FeatureCollection",
  "features": [
    {
      "type": "Feature",
      "properties": {
        "norad_id": 29268,
        "name": "ARIRANG-2 (KOMPSAT-2)",
        "group": "resource",
        "lat": -50.41294748404192,
        "lon": -169.93111218294953,
        "alt_km": 676.736922378348,
        "timestamp": "2025-12-18T07:01:54.244164+00:00",
        "meta_object_name": "ARIRANG-2 (KOMPSAT-2)",
        "meta_object_id": "2006-031A",
        "meta_epoch": "2025-12-17T23:46:05.744064",
        "meta_mean_motion": 14.64498502,
        "meta_eccentricity": 0.00132663,
        "meta_inclination": 97.8258,
        "meta_ra_of_asc_node": 180.2069,
        "meta_arg_of_pericenter": 291.2319,
        "meta_mean_anomaly": 223.0896,
        "meta_ephemeris_type": 0,
        "meta_classification_type": "U",
        "meta_norad_cat_id": 29268,
        "meta_element_set_no": 999,
        "meta_rev_at_epoch": 3495,
        "meta_bstar": 5.9501654e-05,
        "meta_mean_motion_dot": 2.71e-06,
        "meta_mean_motion_ddot": 0,
        "tle_line1": "1 29268U 06031A   25351.99034426  .00000271  00000+0  59502-4 0  9994",
        "tle_line2": "2 29268  97.8258 180.2069 0013266 291.2319 223.0896 14.64498502 34953"
      },
      "geometry": {
        "type": "Point",
        "coordinates": [
          -169.93111218294953,
          -50.41294748404192
        ]
      }
    },
    {
      "type": "Feature",
      "properties": {
        "norad_id": 29709,
        "name": "LAPAN-TUBSAT",
        "group": "resource",
        "lat": -52.95025442935635,
        "lon": -6.526422078488404,
        "alt_km": 621.8570224142604,
        "timestamp": "2025-12-18T07:01:54.244175+00:00",
        "meta_object_name": "LAPAN-TUBSAT",
        "meta_object_id": "2007-001A",
        "meta_epoch": "2025-12-17T23:11:27.893184",
        "meta_mean_motion": 14.85678949,
        "meta_eccentricity": 0.00135482,
        "meta_inclination": 98.1256,
        "meta_ra_of_asc_node": 342.2307,
        "meta_arg_of_pericenter": 58.5879,
        "meta_mean_anomaly": 301.6658,
        "meta_ephemeris_type": 0,
        "meta_classification_type": "U",
        "meta_norad_cat_id": 29709,
        "meta_element_set_no": 999,
        "meta_rev_at_epoch": 2424,
        "meta_bstar": 5.2791224e-05,
        "meta_mean_motion_dot": 4.01e-06,
        "meta_mean_motion_ddot": 0,
        "tle_line1": "1 29709U 07001A   25351.96629506  .00000401  00000+0  52791-4 0  9996",
        "tle_line2": "2 29709  98.1256 342.2307 0013548  58.5879 301.6658 14.85678949 24246"
      },
      "geometry": {
        "type": "Point",
        "coordinates": [
          -6.526422078488404,
          -52.95025442935635
        ]
      }
    },
    {
      "type": "Feature",
      "properties": {
        "norad_id": 31113,
        "name": "HAIYANG-1B",
        "group": "resource",
        "lat": 0.23808900562603832,
        "lon": 156.37666082468206,
        "alt_km": 800.6855992680621,
        "timestamp": "2025-12-18T07:01:54.244186+00:00",
        "meta_object_name": "HAIYANG-1B",
        "meta_object_id": "2007-010A",
        "meta_epoch": "2025-12-17T21:48:16.917696",
        "meta_mean_motion": 14.3096685,
        "meta_eccentricity": 0.00140197,
        "meta_inclination": 98.3317,
        "meta_ra_of_asc_node": 335.9732,
        "meta_arg_of_pericenter": 23.3851,
        "meta_mean_anomaly": 336.7967,
        "meta_ephemeris_type": 0,
        "meta_classification_type": "U",
        "meta_norad_cat_id": 31113,
        "meta_element_set_no": 999,
        "meta_rev_at_epoch": 97470,
        "meta_bstar": 5.3781568e-05,
        "meta_mean_motion_dot": 1e-06,
        "meta_mean_motion_ddot": 0,
        "tle_line1": "1 31113U 07010A   25351.90852914  .00000100  00000+0  53782-4 0  9990",
        "tle_line2": "2 31113  98.3317 335.9732 0014019  23.3851 336.7967 14.30966850974701"
      },
      "geometry": {
        "type": "Point",
        "coordinates": [
          156.37666082468206,
          0.23808900562603832
        ]
      }
    },
    {
      "type": "Feature",
      "properties": {
        "norad_id": 31598,
        "name": "COSMO-SKYMED 1",
        "group": "resource",
        "lat": 73.68320203820392,
        "lon": 25.978993163800922,
        "alt_km": 571.7835508621229,
        "timestamp": "2025-12-18T07:01:54.244196+00:00",
        "meta_object_name": "COSMO-SKYMED 1",
        "meta_object_id": "2007-023A",
        "meta_epoch": "2025-12-17T22:32:23.457696",
        "meta_mean_motion": 14.95805864,
        "meta_eccentricity": 0.00015612,
        "meta_inclination": 97.8835,
        "meta_ra_of_asc_node": 177.3722,
        "meta_arg_of_pericenter": 87.5282,
        "meta_mean_anomaly": 272.6117,
        "meta_ephemeris_type": 0,
        "meta_classification_type": "U",
        "meta_norad_cat_id": 31598,
        "meta_element_set_no": 999,
        "meta_rev_at_epoch": 268,
        "meta_bstar": 0.00033271996,
        "meta_mean_motion_dot": 3.654e-05,
        "meta_mean_motion_ddot": 0,
        "tle_line1": "1 31598U 07023A   25351.93916039  .00003654  00000+0  33272-3 0  9991",
        "tle_line2": "2 31598  97.8835 177.3722 0001561  87.5282 272.6117 14.95805864  2684"
      },
      "geometry": {
        "type": "Point",
        "coordinates": [
          25.978993163800922,
          73.68320203820392
        ]
      }
    },
    {
      "type": "Feature",
      "properties": {
        "norad_id": 31698,
        "name": "TERRASAR-X",
        "group": "resource",
        "lat": -45.93566656102312,
        "lon": 169.82736307837854,
        "alt_km": 516.156657575194,
        "timestamp": "2025-12-18T07:01:54.244207+00:00",
        "meta_object_name": "TERRASAR-X",
        "meta_object_id": "2007-026A",
        "meta_epoch": "2025-12-17T14:13:48.329472",
        "meta_mean_motion": 15.19149756,
        "meta_eccentricity": 0.00018426,
        "meta_inclination": 97.4455,
        "meta_ra_of_asc_node": 356.9029,
        "meta_arg_of_pericenter": 91.3746,
        "meta_mean_anomaly": 268.77,
        "meta_ephemeris_type": 0,
        "meta_classification_type": "U",
        "meta_norad_cat_id": 31698,
        "meta_element_set_no": 999,
        "meta_rev_at_epoch": 2565,
        "meta_bstar": 4.5889707e-05,
        "meta_mean_motion_dot": 8.97e-06,
        "meta_mean_motion_ddot": 0,
        "tle_line1": "1 31698U 07026A   25351.59292048  .00000897  00000+0  45890-4 0  9990",
        "tle_line2": "2 31698  97.4455 356.9029 0001842  91.3746 268.7700 15.19149756 25658"
      },
      "geometry": {
        "type": "Point",
        "coordinates": [
          169.82736307837854,
          -45.93566656102312
        ]
      }
    },
    {
      "type": "Feature",
      "properties": {
        "norad_id": 32060,
        "name": "WORLDVIEW-1 (WV-1)",
        "group": "resource",
        "lat": -20.769842457520873,
        "lon": 112.51507783525263,
        "alt_km": 497.24191022440664,
        "timestamp": "2025-12-18T07:01:54.244218+00:00",
        "meta_object_name": "WORLDVIEW-1 (WV-1)",
        "meta_object_id": "2007-041A",
        "meta_epoch": "2025-12-17T21:40:24.061728",
        "meta_mean_motion": 15.24773613,
        "meta_eccentricity": 8.956e-05,
        "meta_inclination": 97.3839,
        "meta_ra_of_asc_node": 109.3115,
        "meta_arg_of_pericenter": 116.7003,
        "meta_mean_anomaly": 243.4326,
        "meta_ephemeris_type": 0,
        "meta_classification_type": "U",
        "meta_norad_cat_id": 32060,
        "meta_element_set_no": 999,
        "meta_rev_at_epoch": 1526,
        "meta_bstar": 0.00027610113,
        "meta_mean_motion_dot": 6.773e-05,
        "meta_mean_motion_ddot": 0,
        "tle_line1": "1 32060U 07041A   25351.90305627  .00006773  00000+0  27610-3 0  9992",
        "tle_line2": "2 32060  97.3839 109.3115 0000895 116.7003 243.4326 15.24773613 15269"
      },
      "geometry": {
        "type": "Point",
        "coordinates": [
          112.51507783525263,
          -20.769842457520873
        ]
      }
    },
    {
      "type": "Feature",
      "properties": {
        "norad_id": 32289,
        "name": "YAOGAN-3",
        "group": "resource",
        "lat": -15.590731798671545,
        "lon": -163.33388092214128,
        "alt_km": 603.6103616421033,
        "timestamp": "2025-12-18T07:01:54.244228+00:00",
        "meta_object_name": "YAOGAN-3",
        "meta_object_id": "2007-055A",
        "meta_epoch": "2025-12-17T23:42:32.824224",
        "meta_mean_motion": 14.8988474,
        "meta_eccentricity": 0.00013378,
        "meta_inclination": 97.8367,
        "meta_ra_of_asc_node": 18.5662,
        "meta_arg_of_pericenter": 74.3559,
        "meta_mean_anomaly": 285.7806,
        "meta_ephemeris_type": 0,
        "meta_classification_type": "U",
        "meta_norad_cat_id": 32289,
        "meta_element_set_no": 999,
        "meta_rev_at_epoch": 97887,
        "meta_bstar": 0.00018830018,
        "meta_mean_motion_dot": 1.755e-05,
        "meta_mean_motion_ddot": 0,
        "tle_line1": "1 32289U 07055A   25351.98787991  .00001755  00000+0  18830-3 0  9995",
        "tle_line2": "2 32289  97.8367  18.5662 0001337  74.3559 285.7806 14.89884740978879"
      },
      "geometry": {
        "type": "Point",
        "coordinates": [
          -163.33388092214128,
          -15.590731798671545
        ]
      }
    }
  ]
}